STARLINK-3563           
1 51858U 22022G   26068.30805094  .00000266  00000+0  34786-4 0  9991
2 51858  53.2194  20.8334 0001463  84.9792 275.1367 15.08837142222967
DISKSAT B               
1 67220U 25305B   26068.81497770  .00012481  00000+0  82401-3 0  9990
2 67220  45.0018 250.2098 0003783 311.4052  48.6498 15.07484556 12311
